{"type": "FeatureCollection", "features": [ {"type": "Feature", "properties": {"norad_id": 36048, "name": "COSMOS 2251 DEB", "group": "cosmos-2251-debris", "lat": -33.57706904776474, "lon": 104.56865899849835, "alt_km": 776.6344748072133, "timestamp": "2025-12-26T16:33:55.967308+00:00", "meta": {"OBJECT_NAME": "COSMOS 2251 DEB", "OBJECT_ID": "1993-036AXK", "EPOCH": "2025-12-25T19:47:51.613152", "MEAN_MOTION": 14.37873513, "ECCENTRICITY": 0.00271039, "INCLINATION": 74.0571, "RA_OF_ASC_NODE": 275.2209, "ARG_OF_PERICENTER": 322.8373, "MEAN_ANOMALY": 95.0442, "EPHEMERIS_TYPE": 0, "CLASSIFICATION_TYPE": "U", "NORAD_CAT_ID": 36048, "ELEMENT_SET_NO": 999, "REV_AT_EPOCH": 85690, "BSTAR": 0.00026808417, "MEAN_MOTION_DOT": 7.86e-06, "MEAN_MOTION_DDOT": 0}, "tle": {"line1": "1 36048U 93036AXK 25359.82490293  .00000786  00000+0  26808-3 0  9990", "line2": "2 36048  74.0571 275.2209 0027103 322.8373  95.0442 14.37873513856909"}}, "geometry": {"type": "Point", "coordinates": [104.56865899849835, -33.57706904776474]}}, {"type": "Feature", "properties": {"norad_id": 36049, "name": "COSMOS 2251 DEB", "group": "cosmos-2251-debris", "lat": 68.91812175600238, "lon": -135.50746063678233, "alt_km": 677.0025943821374, "timestamp": "2025-12-26T16:33:55.967317+00:00", "meta": {"OBJECT_NAME": "COSMOS 2251 DEB", "OBJECT_ID": "1993-036AXL", "EPOCH": "2025-12-24T16:28:33.256992", "MEAN_MOTION": 14.62291602, "ECCENTRICITY": 0.00099539, "INCLINATION": 74.0314, "RA_OF_ASC_NODE": 96.2976, "ARG_OF_PERICENTER": 184.7355, "MEAN_ANOMALY": 175.3719, "EPHEMERIS_TYPE": 0, "CLASSIFICATION_TYPE": "U", "NORAD_CAT_ID": 36049, "ELEMENT_SET_NO": 999, "REV_AT_EPOCH": 85539, "BSTAR": 0.0013226671, "MEAN_MOTION_DOT": 6.656e-05, "MEAN_MOTION_DDOT": 0}, "tle": {"line1": "1 36049U 93036AXL 25358.68649603  .00006656  00000+0  13227-2 0  9997", "line2": "2 36049  74.0314  96.2976 0009953 184.7355 175.3719 14.62291602855397"}}, "geometry": {"type": "Point", "coordinates": [-135.50746063678233, 68.91812175600238]}}, {"type": "Feature", "properties": {"norad_id": 36050, "name": "COSMOS 2251 DEB", "group": "cosmos-2251-debris", "lat": -30.605834426734425, "lon": 155.85835798336387, "alt_km": 564.088607094779, "timestamp": "2025-12-26T16:33:55.967326+00:00", "meta": {"OBJECT_NAME": "COSMOS 2251 DEB", "OBJECT_ID": "1993-036AXM", "EPOCH": "2025-12-23T18:20:06.375552", "MEAN_MOTION": 15.01191833, "ECCENTRICITY": 0.00883826, "INCLINATION": 74.0302, "RA_OF_ASC_NODE": 171.57, "ARG_OF_PERICENTER": 248.7055, "MEAN_ANOMALY": 110.468, "EPHEMERIS_TYPE": 0, "CLASSIFICATION_TYPE": "U", "NORAD_CAT_ID": 36050, "ELEMENT_SET_NO": 999, "REV_AT_EPOCH": 67200, "BSTAR": 0.00066513085, "MEAN_MOTION_DOT": 9.246e-05, "MEAN_MOTION_DDOT": 0}, "tle": {"line1": "1 36050U 93036AXM 25357.76396268  .00009246  00000+0  66513-3 0  9998", "line2": "2 36050  74.0302 171.5700 0088382 248.7055 110.4680 15.01191833672000"}}, "geometry": {"type": "Point", "coordinates": [155.85835798336387, -30.605834426734425]}}, {"type": "Feature", "properties": {"norad_id": 36053, "name": "COSMOS 2251 DEB", "group": "cosmos-2251-debris", "lat": -12.9752831142587, "lon": -50.261808081547755, "alt_km": 718.4432748481413, "timestamp": "2025-12-26T16:33:55.967335+00:00", "meta": {"OBJECT_NAME": "COSMOS 2251 DEB", "OBJECT_ID": "1993-036AXQ", "EPOCH": "2025-12-26T00:51:23.527872", "MEAN_MOTION": 14.57338547, "ECCENTRICITY": 0.00324806, "INCLINATION": 73.8704, "RA_OF_ASC_NODE": 127.1707, "ARG_OF_PERICENTER": 71.5947, "MEAN_ANOMALY": 288.8743, "EPHEMERIS_TYPE": 0, "CLASSIFICATION_TYPE": "U", "NORAD_CAT_ID": 36053, "ELEMENT_SET_NO": 999, "REV_AT_EPOCH": 87638, "BSTAR": 0.0014377554, "MEAN_MOTION_DOT": 6.535e-05, "MEAN_MOTION_DDOT": 0}, "tle": {"line1": "1 36053U 93036AXQ 25360.03568898  .00006535  00000+0  14378-2 0  9994", "line2": "2 36053  73.8704 127.1707 0032480  71.5947 288.8743 14.57338547876382"}}, "geometry": {"type": "Point", "coordinates": [-50.261808081547755, -12.9752831142587]}}, {"type": "Feature", "properties": {"norad_id": 36058, "name": "COSMOS 2251 DEB", "group": "cosmos-2251-debris", "lat": 30.56068358022911, "lon": 16.61447828686096, "alt_km": 703.4766521624279, "timestamp": "2025-12-26T16:33:55.967345+00:00", "meta": {"OBJECT_NAME": "COSMOS 2251 DEB", "OBJECT_ID": "1993-036AXV", "EPOCH": "2025-12-20T18:52:04.818432", "MEAN_MOTION": 14.58726339, "ECCENTRICITY": 0.00440828, "INCLINATION": 74.0229, "RA_OF_ASC_NODE": 18.1226, "ARG_OF_PERICENTER": 150.2394, "MEAN_ANOMALY": 210.1292, "EPHEMERIS_TYPE": 0, "CLASSIFICATION_TYPE": "U", "NORAD_CAT_ID": 36058, "ELEMENT_SET_NO": 999, "REV_AT_EPOCH": 66228, "BSTAR": 0.0002931852, "MEAN_MOTION_DOT": 1.357e-05, "MEAN_MOTION_DDOT": 0}, "tle": {"line1": "1 36058U 93036AXV 25354.78616688  .00001357  00000+0  29319-3 0  9994", "line2": "2 36058  74.0229  18.1226 0044082 150.2394 210.1292 14.58726339662289"}}, "geometry": {"type": "Point", "coordinates": [16.61447828686096, 30.56068358022911]}}, {"type": "Feature", "properties": {"norad_id": 36060, "name": "COSMOS 2251 DEB", "group": "cosmos-2251-debris", "lat": 2.9881662373632607, "lon": 27.839576339451597, "alt_km": 760.7522589475166, "timestamp": "2025-12-26T16:33:55.967353+00:00", "meta": {"OBJECT_NAME": "COSMOS 2251 DEB", "OBJECT_ID": "1993-036AXX", "EPOCH": "2025-12-24T20:27:25.953408", "MEAN_MOTION": 14.42023746, "ECCENTRICITY": 0.0015617, "INCLINATION": 74.0276, "RA_OF_ASC_NODE": 212.1036, "ARG_OF_PERICENTER": 307.841, "MEAN_ANOMALY": 52.1332, "EPHEMERIS_TYPE": 0, "CLASSIFICATION_TYPE": "U", "NORAD_CAT_ID": 36060, "ELEMENT_SET_NO": 999, "REV_AT_EPOCH": 85184, "BSTAR": 0.00026955178, "MEAN_MOTION_DOT": 8.59e-06, "MEAN_MOTION_DDOT": 0}, "tle": {"line1": "1 36060U 93036AXX 25358.85238372  .00000859  00000+0  26955-3 0  9998", "line2": "2 36060  74.0276 212.1036 0015617 307.8410  52.1332 14.42023746851846"}}, "geometry": {"type": "Point", "coordinates": [27.839576339451597, 2.9881662373632607]}}, {"type": "Feature", "properties": {"norad_id": 36061, "name": "COSMOS 2251 DEB", "group": "cosmos-2251-debris", "lat": -54.81312205800037, "lon": -49.74375441213191, "alt_km": 797.5208217082227, "timestamp": "2025-12-26T16:33:55.967382+00:00", "meta": {"OBJECT_NAME": "COSMOS 2251 DEB", "OBJECT_ID": "1993-036AXY", "EPOCH": "2025-12-26T05:06:50.998464", "MEAN_MOTION": 14.33730546, "ECCENTRICITY": 0.00369994, "INCLINATION": 74.0257, "RA_OF_ASC_NODE": 335.0992, "ARG_OF_PERICENTER": 58.9018, "MEAN_ANOMALY": 301.5755, "EPHEMERIS_TYPE": 0, "CLASSIFICATION_TYPE": "U", "NORAD_CAT_ID": 36061, "ELEMENT_SET_NO": 999, "REV_AT_EPOCH": 65297, "BSTAR": 0.00033911755, "MEAN_MOTION_DOT": 9.23e-06, "MEAN_MOTION_DDOT": 0}, "tle": {"line1": "1 36061U 93036AXY 25360.21309026  .00000923  00000+0  33912-3 0  9990", "line2": "2 36061  74.0257 335.0992 0036999  58.9018 301.5755 14.33730546652972"}}, "geometry": {"type": "Point", "coordinates": [-49.74375441213191, -54.81312205800037]}}, {"type": "Feature", "properties": {"norad_id": 36073, "name": "COSMOS 2251 DEB", "group": "cosmos-2251-debris", "lat": 70.54970142802715, "lon": 62.82154536429309, "alt_km": 770.9086218807888, "timestamp": "2025-12-26T16:33:55.967392+00:00", "meta": {"OBJECT_NAME": "COSMOS 2251 DEB", "OBJECT_ID": "1993-036AYL", "EPOCH": "2025-12-18T03:58:06.481920", "MEAN_MOTION": 14.34959898, "ECCENTRICITY": 0.00240895, "INCLINATION": 74.0326, "RA_OF_ASC_NODE": 312.6126, "ARG_OF_PERICENTER": 19.0207, "MEAN_ANOMALY": 341.1839, "EPHEMERIS_TYPE": 0, "CLASSIFICATION_TYPE": "U", "NORAD_CAT_ID": 36073, "ELEMENT_SET_NO": 999, "REV_AT_EPOCH": 70285, "BSTAR": 0.0001893667, "MEAN_MOTION_DOT": 5.14e-06, "MEAN_MOTION_DDOT": 0}, "tle": {"line1": "1 36073U 93036AYL 25352.16535280  .00000514  00000+0  18937-3 0  9997", "line2": "2 36073  74.0326 312.6126 0024089  19.0207 341.1839 14.34959898702857"}}, "geometry": {"type": "Point", "coordinates": [62.82154536429309, 70.54970142802715]}}, {"type": "Feature", "properties": {"norad_id": 36074, "name": "COSMOS 2251 DEB", "group": "cosmos-2251-debris", "lat": -38.549817227304885, "lon": -58.740774721396356, "alt_km": 748.0882688051051, "timestamp": "2025-12-26T16:33:55.967401+00:00", "meta": {"OBJECT_NAME": "COSMOS 2251 DEB", "OBJECT_ID": "1993-036AYM", "EPOCH": "2025-12-22T22:57:11.517120", "MEAN_MOTION": 14.43796912, "ECCENTRICITY": 0.0041956, "INCLINATION": 73.994, "RA_OF_ASC_NODE": 321.4388, "ARG_OF_PERICENTER": 50.2945, "MEAN_ANOMALY": 310.1898, "EPHEMERIS_TYPE": 0, "CLASSIFICATION_TYPE": "U", "NORAD_CAT_ID": 36074, "ELEMENT_SET_NO": 999, "REV_AT_EPOCH": 86057, "BSTAR": 0.001160749, "MEAN_MOTION_DOT": 3.969e-05, "MEAN_MOTION_DDOT": 0}, "tle": {"line1": "1 36074U 93036AYM 25356.95638330  .00003969  00000+0  11607-2 0  9992", "line2": "2 36074  73.9940 321.4388 0041956  50.2945 310.1898 14.43796912860575"}}, "geometry": {"type": "Point", "coordinates": [-58.740774721396356, -38.549817227304885]}}, {"type": "Feature", "properties": {"norad_id": 36366, "name": "COSMOS 2251 DEB", "group": "cosmos-2251-debris", "lat": 72.8137519778798, "lon": 0.13463332382002244, "alt_km": 837.198168024458, "timestamp": "2025-12-26T16:33:55.967410+00:00", "meta": {"OBJECT_NAME": "COSMOS 2251 DEB", "OBJECT_ID": "1993-036AYT", "EPOCH": "2025-12-21T17:11:32.767008", "MEAN_MOTION": 14.33460542, "ECCENTRICITY": 0.00902396, "INCLINATION": 74.0657, "RA_OF_ASC_NODE": 256.6822, "ARG_OF_PERICENTER": 283.124, "MEAN_ANOMALY": 75.9853, "EPHEMERIS_TYPE": 0, "CLASSIFICATION_TYPE": "U", "NORAD_CAT_ID": 36366, "ELEMENT_SET_NO": 999, "REV_AT_EPOCH": 86417, "BSTAR": 0.0010533139, "MEAN_MOTION_DOT": 3.019e-05, "MEAN_MOTION_DDOT": 0}, "tle": {"line1": "1 36366U 93036AYT 25355.71635147  .00003019  00000+0  10533-2 0  9995", "line2": "2 36366  74.0657 256.6822 0090239 283.1240  75.9853 14.33460542864174"}}, "geometry": {"type": "Point", "coordinates": [0.13463332382002244, 72.8137519778798]}}]}